NORAD_CAT_ID,OBJECT_NAME,OBJECT_TYPE,EPOCH,MEAN_MOTION,ECCENTRICITY,INCLINATION,RA_OF_ASC_NODE,ARG_OF_PERICENTER,MEAN_ANOMALY,BSTAR,MEAN_MOTION_DOT,MEAN_MOTION_DDOT,TLE_LINE0,TLE_LINE1,TLE_LINE2,SEMIMAJOR_AXIS,PERIOD,APOGEE,PERIGEE,DECAYED
51982.0,STARLINK-3650,PAYLOAD,2024-07-04 13:04:54,15.08834412,0.0001247,53.2172,271.6344,92.7601,267.3534,4.9669e-05,5.03e-06,0.0,0 STARLINK-3650,1 51982U 22025AC  24186.54507385  .00000503  00000-0  49669-4 0  9990,2 51982  53.2172 271.6344 0001247  92.7601 267.3534 15.08834412129595,6917.897,95.438,540.625,538.9,0.0
51982.0,STARLINK-3650,PAYLOAD,2024-07-04 14:40:17,15.08834654,0.0001257,53.2172,271.337,92.6786,267.435,5.0687e-05,5.19e-06,0.0,0 STARLINK-3650,1 51982U 22025AC  24186.61131390  .00000519  00000-0  50687-4 0  9996,2 51982  53.2172 271.3370 0001257  92.6786 267.4350 15.08834654128500,6917.897,95.438,540.631,538.892,0.0
51982.0,STARLINK-3650,PAYLOAD,2024-07-04 22:37:12,15.08840331,0.0001235,53.2172,269.85,86.8768,273.2365,7.4261e-05,8.94e-06,0.0,0 STARLINK-3650,1 51982U 22025AC  24186.94251015  .00000894  00000-0  74261-4 0  9999,2 51982  53.2172 269.8500 0001235  86.8768 273.2365 15.08840331128553,6917.879,95.438,540.599,538.89,0.0
51982.0,STARLINK-3650,PAYLOAD,2024-07-05 11:20:19,15.08827674,0.0001348,53.2172,267.4726,86.5939,273.5207,-7.3363e-06,-4.05e-06,0.0,0 STARLINK-3650,1 51982U 22025AC  24187.47244320 -.00000405  00000-0 -73363-5 0  9992,2 51982  53.2172 267.4726 0001348  86.5939 273.5207 15.08827674129733,6917.918,95.438,540.716,538.851,0.0
51982.0,STARLINK-3650,PAYLOAD,2024-07-06 04:49:32,15.08843508,0.0001548,53.2183,264.2001,87.2495,272.8675,1.453e-05,-5.7e-07,0.0,0 STARLINK-3650,1 51982U 22025AC  24188.20107390 -.00000057  00000-0  14530-4 0  9991,2 51982  53.2183 264.2001 0001548  87.2495 272.8675 15.08843508129840,6917.87,95.437,540.806,538.664,0.0
51982.0,STARLINK-3650,PAYLOAD,2024-07-06 12:46:27,15.08846998,0.0001302,53.2172,262.7144,88.3886,271.7255,0.00010586,1.398e-05,0.0,0 STARLINK-3650,1 51982U 22025AC  24188.53226677  .00001398  00000-0  10586-3 0  9991,2 51982  53.2172 262.7144 0001302  88.3886 271.7255 15.08846998128794,6917.859,95.437,540.625,538.823,0.0
51982.0,STARLINK-3650,PAYLOAD,2024-07-07 09:26:29,15.08833686,0.000149,53.2182,258.8484,93.0739,267.0424,4.945e-05,4.99e-06,0.0,0 STARLINK-3650,1 51982U 22025AC  24189.39339454  .00000499  00000-0  49450-4 0  9998,2 51982  53.2182 258.8484 0001490  93.0739 267.0424 15.08833686130021,6917.9,95.438,540.795,538.734,0.0
51982.0,STARLINK-3650,PAYLOAD,2024-07-08 10:52:39,15.08837775,0.0001148,53.2186,254.0884,101.1852,258.927,3.7022e-05,3.01e-06,0.0,0 STARLINK-3650,1 51982U 22025AC  24190.45322934  .00000301  00000-0  37022-4 0  9996,2 51982  53.2186 254.0884 0001148 101.1852 258.9270 15.08837775130182,6917.887,95.438,540.546,538.958,0.0
51982.0,STARLINK-3650,PAYLOAD,2024-07-09 10:43:26,15.08835197,0.0001324,53.217,249.6292,92.4529,267.6614,2.0578e-05,4e-07,0.0,0 STARLINK-3650,1 51982U 22025AC  24191.44682955  .00000040  00000-0  20578-4 0  9996,2 51982  53.2170 249.6292 0001324  92.4529 267.6614 15.08835197129236,6917.895,95.438,540.676,538.844,0.0
51982.0,STARLINK-3650,PAYLOAD,2024-07-10 04:12:40,15.08836765,0.0001266,53.2167,246.358,90.6072,269.5065,-2.042e-05,-6.13e-06,0.0,0 STARLINK-3650,1 51982U 22025AC  24192.17547124 -.00000613  00000-0 -20420-4 0  9999,2 51982  53.2167 246.3580 0001266  90.6072 269.5065 15.08836765130442,6917.89,95.438,540.631,538.879,0.0
51982.0,STARLINK-3650,PAYLOAD,2024-07-10 10:34:13,15.08834897,0.0001272,53.2167,245.168,90.4156,269.6982,-3.3506e-05,-8.21e-06,0.0,0 STARLINK-3650,1 51982U 22025AC  24192.44043373 -.00000821  00000-0 -33506-4 0  9996,2 51982  53.2167 245.1680 0001272  90.4156 269.6982 15.08834897129382,6917.896,95.438,540.641,538.881,0.0
51982.0,STARLINK-3650,PAYLOAD,2024-07-11 13:35:46,15.08835896,0.0001285,53.2165,240.1129,89.4755,270.6385,3.0286e-05,1.94e-06,0.0,0 STARLINK-3650,1 51982U 22025AC  24193.56651400  .00000194  00000-0  30286-4 0  9999,2 51982  53.2165 240.1129 0001285  89.4755 270.6385 15.08835896129558,6917.893,95.438,540.647,538.869,0.0
51982.0,STARLINK-3650,PAYLOAD,2024-07-11 19:57:19,15.08838779,0.0001292,53.2165,238.9246,92.2217,267.8923,6.089e-05,6.81e-06,0.0,0 STARLINK-3650,1 51982U 22025AC  24193.83147154  .00000681  00000-0  60890-4 0  9990,2 51982  53.2165 238.9246 0001292  92.2217 267.8923 15.08838779129599,6917.884,95.438,540.643,538.855,0.0
51982.0,STARLINK-3650,PAYLOAD,2024-07-12 11:51:10,15.08837691,0.0001289,53.2162,235.9512,94.2542,265.8597,7.8106e-05,9.55e-06,0.0,0 STARLINK-3650,1 51982U 22025AC  24194.49387303  .00000955  00000-0  78106-4 0  9998,2 51982  53.2162 235.9512 0001289  94.2542 265.8597 15.08837691129696,6917.887,95.438,540.644,538.861,0.0
51982.0,STARLINK-3650,PAYLOAD,2024-07-13 02:09:38,15.08842214,0.0001297,53.2159,233.275,87.1781,272.936,3.5919e-05,2.84e-06,0.0,0 STARLINK-3650,1 51982U 22025AC  24195.09003235  .00000284  00000-0  35919-4 0  9994,2 51982  53.2159 233.2750 0001297  87.1781 272.9360 15.08842214130889,6917.874,95.437,540.636,538.841,0.0
51982.0,STARLINK-3650,PAYLOAD,2024-07-13 10:06:34,15.08839596,0.0001289,53.2161,231.7877,84.9248,275.1891,1.2721e-05,-8.5e-07,0.0,0 STARLINK-3650,1 51982U 22025AC  24195.42123494 -.00000085  00000-0  12721-4 0  9997,2 51982  53.2161 231.7877 0001289  84.9248 275.1891 15.08839596129835,6917.882,95.438,540.638,538.855,0.0
51982.0,STARLINK-3650,PAYLOAD,2024-07-13 19:38:53,15.08842064,0.0001284,53.2162,230.0036,86.3375,273.7764,2.2903e-05,7.7e-07,0.0,0 STARLINK-3650,1 51982U 22025AC  24195.81867291  .00000077  00000-0  22903-4 0  9993,2 51982  53.2162 230.0036 0001284  86.3375 273.7764 15.08842064129890,6917.874,95.437,540.627,538.851,0.0
51982.0,STARLINK-3650,PAYLOAD,2024-07-14 11:32:44,15.0884099,0.0001225,53.2157,227.0282,92.3647,267.7485,1.5865e-05,-3.5e-07,0.0,0 STARLINK-3650,1 51982U 22025AC  24196.48107311 -.00000035  00000-0  15865-4 0  9991,2 51982  53.2157 227.0282 0001225  92.3647 267.7485 15.08840990131091,6917.877,95.437,540.59,538.895,0.0
51982.0,STARLINK-3650,PAYLOAD,2024-07-15 08:12:45,15.08841185,0.0001227,53.2159,223.1628,90.577,269.5362,3.5926e-05,2.84e-06,0.0,0 STARLINK-3650,1 51982U 22025AC  24197.34219171  .00000284  00000-0  35926-4 0  9990,2 51982  53.2159 223.1628 0001227  90.5770 269.5362 15.08841185130127,6917.877,95.437,540.591,538.893,0.0
51982.0,STARLINK-3650,PAYLOAD,2024-07-15 19:20:27,15.08842705,0.000124,53.2159,221.0817,88.8996,271.2139,4.1021e-05,3.65e-06,0.0,0 STARLINK-3650,1 51982U 22025AC  24197.80586963  .00000365  00000-0  41021-4 0  9990,2 51982  53.2159 221.0817 0001240  88.8996 271.2139 15.08842705130197,6917.872,95.437,540.595,538.879,0.0
51982.0,STARLINK-3650,PAYLOAD,2024-07-16 04:52:46,15.08834564,0.0001287,53.2161,219.2981,88.5796,271.5343,-2.1358e-06,-3.22e-06,0.0,0 STARLINK-3650,1 51982U 22025AC  24198.20331662 -.00000322  00000-0 -21358-5 0  9996,2 51982  53.2161 219.2981 0001287  88.5796 271.5343 15.08834564131350,6917.897,95.438,540.652,538.872,0.0
51982.0,STARLINK-3650,PAYLOAD,2024-07-16 08:03:32,15.08837198,0.0001382,53.2169,218.7035,93.692,266.423,4.1915e-07,-2.81e-06,0.0,0 STARLINK-3650,1 51982U 22025AC  24198.33579518 -.00000281  00000-0  41915-6 0  9999,2 51982  53.2169 218.7035 0001382  93.6920 266.4230 15.08837198130278,6917.889,95.438,540.71,538.798,0.0
51982.0,STARLINK-3650,PAYLOAD,2024-07-17 11:05:06,15.08835203,0.0001382,53.217,213.6479,93.8928,266.2222,-1.7372e-05,-5.64e-06,0.0,0 STARLINK-3650,1 51982U 22025AC  24199.46187975 -.00000564  00000-0 -17372-4 0  9999,2 51982  53.2170 213.6479 0001382  93.8928 266.2222 15.08835203131541,6917.895,95.438,540.716,538.804,0.0
51982.0,STARLINK-3650,PAYLOAD,2024-07-18 07:45:07,15.08835223,0.0001272,53.216,209.7823,93.6742,266.4395,3.8757e-05,3.29e-06,0.0,0 STARLINK-3650,1 51982U 22025AC  24200.32300015  .00000329  00000-0  38757-4 0  9996,2 51982  53.2160 209.7823 0001272  93.6742 266.4395 15.08835223130576,6917.895,95.438,540.64,538.88,0.0
51982.0,STARLINK-3650,PAYLOAD,2024-07-18 17:17:25,15.08838099,0.0001277,53.2162,207.9981,93.2953,266.8185,6.3753e-05,7.27e-06,0.0,0 STARLINK-3650,1 51982U 22025AC  24200.72043855  .00000727  00000-0  63753-4 0  9992,2 51982  53.2162 207.9981 0001277  93.2953 266.8185 15.08838099131732,6917.886,95.438,540.635,538.868,0.0
51982.0,STARLINK-3650,PAYLOAD,2024-07-19 10:46:40,15.08836224,0.0001315,53.2162,204.7273,93.6705,266.4437,6.7178e-05,7.81e-06,0.0,0 STARLINK-3650,1 51982U 22025AC  24201.44908216  .00000781  00000-0  67178-4 0  9998,2 51982  53.2162 204.7273 0001315  93.6705 266.4437 15.08836224130747,6917.892,95.438,540.667,538.847,0.0
51982.0,STARLINK-3650,PAYLOAD,2024-07-19 17:08:13,15.08837775,0.000132,53.2162,203.5379,93.7,266.4143,6.2281e-05,7.03e-06,0.0,0 STARLINK-3650,1 51982U 22025AC  24201.71404127  .00000703  00000-0  62281-4 0  9994,2 51982  53.2162 203.5379 0001320  93.7000 266.4143 15.08837775130786,6917.887,95.438,540.665,538.839,0.0
51982.0,STARLINK-3650,PAYLOAD,2024-07-20 04:15:55,15.0883661,0.0001362,53.2161,201.4565,94.6622,265.4526,3.9951e-05,3.48e-06,0.0,0 STARLINK-3650,1 51982U 22025AC  24202.17772360  .00000348  00000-0  39951-4 0  9995,2 51982  53.2161 201.4565 0001362  94.6622 265.4526 15.08836610131956,6917.891,95.438,540.698,538.814,0.0
51982.0,STARLINK-3650,PAYLOAD,2024-07-20 09:02:04,15.08839039,0.0001374,53.2161,200.5646,94.5296,265.5854,5.7899e-05,6.34e-06,0.0,0 STARLINK-3650,1 51982U 22025AC  24202.37644180  .00000634  00000-0  57899-4 0  9994,2 51982  53.2161 200.5646 0001374  94.5296 265.5854 15.08839039130889,6917.883,95.438,540.699,538.798,0.0
51982.0,STARLINK-3650,PAYLOAD,2024-07-21 07:17:28,15.08837792,0.0001343,53.2158,196.4008,92.335,267.7796,1.6285e-05,-2.9e-07,0.0,0 STARLINK-3650,1 51982U 22025AC  24203.30380471 -.00000029  00000-0  16285-4 0  9991,2 51982  53.2158 196.4008 0001343  92.3350 267.7796 15.08837792132125,6917.887,95.438,540.681,538.823,0.0
